$$SOE
2459580.500000000, A.D. 2022-Jan-01 00:00:00.0000, 3.131991769745984E+08, -1.272017067743231E+08, 6.705250212967818E+07,
2459587.500000000, A.D. 2022-Jan-08 00:00:00.0000, 3.198384265262265E+08, -1.177562281703422E+08, 6.375347597043961E+07,
2459594.500000000, A.D. 2022-Jan-15 00:00:00.0000, 3.261054521396558E+08, -1.081736851736750E+08, 6.038015238999519E+07,
2459601.500000000, A.D. 2022-Jan-22 00:00:00.0000, 3.319997946327681E+08, -9.846750769104296E+07, 5.693772505724343E+07,
2459608.500000000, A.D. 2022-Jan-29 00:00:00.0000, 3.375214932481321E+08, -8.865080618573558E+07, 5.343129287193648E+07,
2459615.500000000, A.D. 2022-Feb-05 00:00:00.0000, 3.426710499260701E+08, -7.873636607617107E+07, 4.986585579510684E+07,
2459622.500000000, A.D. 2022-Feb-12 00:00:00.0000, 3.474493971216005E+08, -6.873664524327716E+07, 4.624631125988510E+07,
2459629.500000000, A.D. 2022-Feb-19 00:00:00.0000, 3.518578678951531E+08, -5.866377206291352E+07, 4.257745139789665E+07,
2459636.500000000, A.D. 2022-Feb-26 00:00:00.0000, 3.558981670016522E+08, -4.852954448605357E+07, 3.886396106705777E+07,
2459643.500000000, A.D. 2022-Mar-05 00:00:00.0000, 3.595723431547189E+08, -3.834543059687531E+07, 3.511041654410391E+07,
2459650.500000000, A.D. 2022-Mar-12 00:00:00.0000, 3.628827626895598E+08, -2.812257054061331E+07, 3.132128478856686E+07,
2459657.500000000, A.D. 2022-Mar-19 00:00:00.0000, 3.658320846844787E+08, -1.787177963207600E+07, 2.750092321081420E+07,
2459664.500000000, A.D. 2022-Mar-26 00:00:00.0000, 3.684232375419235E+08, -7.603552502473325E+06, 2.365357988297501E+07,
2459671.500000000, A.D. 2022-Apr-02 00:00:00.0000, 3.706593970669444E+08, 2.671931794995683E+06, 1.978339412771947E+07,
2459678.500000000, A.D. 2022-Apr-09 00:00:00.0000, 3.725439662769474E+08, 1.294480384805104E+07, 1.589439740999786E+07,
2459685.500000000, A.D. 2022-Apr-16 00:00:00.0000, 3.740805572527996E+08, 2.320549788299131E+07, 1.199051450591434E+07,
2459692.500000000, A.D. 2022-Apr-23 00:00:00.0000, 3.752729737133233E+08, 3.344474688685197E+07, 8.075565112390103E+06,
2459699.500000000, A.D. 2022-Apr-30 00:00:00.0000, 3.761251923986138E+08, 4.365357670180317E+07, 4.153265848877780E+06,
2459706.500000000, A.D. 2022-May-07 00:00:00.0000, 3.766413462743375E+08, 5.382329719689443E+07, 2.272321740225367E+05,
2459713.500000000, A.D. 2022-May-14 00:00:00.0000, 3.768257108886535E+08, 6.394549362825090E+07, -3.699019693762913E+06,
2459720.500000000, A.D. 2022-May-21 00:00:00.0000, 3.766826917954053E+08, 7.401201901360613E+07, -7.622070631446168E+06,
2459727.500000000, A.D. 2022-May-28 00:00:00.0000, 3.762168125120334E+08, 8.401498662136866E+07, -1.153859630170909E+07,
2459734.500000000, A.D. 2022-Jun-04 00:00:00.0000, 3.754327032373921E+08, 9.394676231285119E+07, -1.544536475210933E+07,
2459741.500000000, A.D. 2022-Jun-11 00:00:00.0000, 3.743350904230902E+08, 1.037999567844657E+08, -1.933923395662324E+07,
2459748.500000000, A.D. 2022-Jun-18 00:00:00.0000, 3.729287871867523E+08, 1.135674177611451E+08, -2.321714932042073E+07,
2459755.500000000, A.D. 2022-Jun-25 00:00:00.0000, 3.712186845464102E+08, 1.232422221396653E+08, -2.707614116956852E+07,
2459762.500000000, A.D. 2022-Jul-02 00:00:00.0000, 3.692097435595236E+08, 1.328176680432179E+08, -3.091332225737051E+07,
2459769.500000000, A.D. 2022-Jul-09 00:00:00.0000, 3.669069887064130E+08, 1.422872669879960E+08, -3.472588532042000E+07,
2459776.500000000, A.D. 2022-Jul-16 00:00:00.0000, 3.643155024125973E+08, 1.516447372671129E+08, -3.851110060015503E+07,
2459783.500000000, A.D. 2022-Jul-23 00:00:00.0000, 3.614404184673520E+08, 1.608839986546512E+08, -4.226631312957886E+07,
2459790.500000000, A.D. 2022-Jul-30 00:00:00.0000, 3.582869143916707E+08, 1.699991650976979E+08, -4.598894007535265E+07,
2459797.500000000, A.D. 2022-Aug-06 00:00:00.0000, 3.548602063241462E+08, 1.789845360550937E+08, -4.967646842081004E+07,
2459804.500000000, A.D. 2022-Aug-13 00:00:00.0000, 3.511655455658404E+08, 1.878345892442104E+08, -5.332645269571292E+07,
2459811.500000000, A.D. 2022-Aug-20 00:00:00.0000, 3.472082151803523E+08, 1.965439742992322E+08, -5.693651265505230E+07,
2459818.500000000, A.D. 2022-Aug-27 00:00:00.0000, 3.429935266850598E+08, 2.051075066199907E+08, -6.050433097678604E+07,
2459825.500000000, A.D. 2022-Sep-03 00:00:00.0000, 3.385268170509670E+08, 2.135201613051895E+08, -6.402765101375693E+07,
2459832.500000000, A.D. 2022-Sep-10 00:00:00.0000, 3.338134460726369E+08, 2.217770671973334E+08, -6.750427460892394E+07,
2459839.500000000, A.D. 2022-Sep-17 00:00:00.0000, 3.288587941110475E+08, 2.298735010401663E+08, -7.093205997910738E+07,
2459846.500000000, A.D. 2022-Sep-24 00:00:00.0000, 3.236682602453754E+08, 2.378048816995979E+08, -7.430891967902069E+07,
2459853.500000000, A.D. 2022-Oct-01 00:00:00.0000, 3.182472610516904E+08, 2.455667644269893E+08, -7.763281867145824E+07,
2459860.500000000, A.D. 2022-Oct-08 00:00:00.0000, 3.126012303960364E+08, 2.531548356860992E+08, -8.090177250025065E+07,
2459867.500000000, A.D. 2022-Oct-15 00:00:00.0000, 3.067356192892277E+08, 2.605649097392731E+08, -8.411384538304684E+07,
2459874.500000000, A.D. 2022-Oct-22 00:00:00.0000, 3.006558936005403E+08, 2.677929253082179E+08, -8.726714816110949E+07,
2459881.500000000, A.D. 2022-Oct-29 00:00:00.0000, 2.943675321139974E+08, 2.748349397173591E+08, -9.035983654890871E+07,
2459888.500000000, A.D. 2022-Nov-05 00:00:00.0000, 2.878760270131136E+08, 2.816871232567592E+08, -9.339010965289104E+07,
2459895.500000000, A.D. 2022-Nov-12 00:00:00.0000, 2.811868848124210E+08, 2.883457550271500E+08, -9.635620847442302E+07,
2459902.500000000, A.D. 2022-Nov-19 00:00:00.0000, 2.743056270009571E+08, 2.948072193108920E+08, -9.925641440788448E+07,
2459909.500000000, A.D. 2022-Nov-26 00:00:00.0000, 2.672377906466627E+08, 3.010680020704520E+08, -1.020890477900222E+08,
2459916.500000000, A.D. 2022-Dec-03 00:00:00.0000, 2.599889291160639E+08, 3.071246875621207E+08, -1.048524665167788E+08,
2459923.500000000, A.D. 2022-Dec-10 00:00:00.0000, 2.525646129445949E+08, 3.129739550829408E+08, -1.075450647306545E+08,
2459930.500000000, A.D. 2022-Dec-17 00:00:00.0000, 2.449704308733803E+08, 3.186125758249181E+08, -1.101652715834872E+08,
2459937.500000000, A.D. 2022-Dec-24 00:00:00.0000, 2.372119911538970E+08, 3.240374097695608E+08, -1.127115500906380E+08,
2459944.500000000, A.D. 2022-Dec-31 00:00:00.0000, 2.292949234711776E+08, 3.292454027292563E+08, -1.151823961012921E+08,
2459951.500000000, A.D. 2023-Jan-07 00:00:00.0000, 2.212248816025143E+08, 3.342335844959828E+08, -1.175763373180989E+08,
2459958.500000000, A.D. 2023-Jan-14 00:00:00.0000, 2.130075448375293E+08, 3.389990685898727E+08, -1.198919321438968E+08,
2459965.500000000, A.D. 2023-Jan-21 00:00:00.0000, 2.046486175053839E+08, 3.435390504340335E+08, -1.221277685541006E+08,
2459972.500000000, A.D. 2023-Jan-28 00:00:00.0000, 1.961538302722676E+08, 3.478508037633903E+08, -1.242824633490870E+08,
2459979.500000000, A.D. 2023-Feb-04 00:00:00.0000, 1.875289429974624E+08, 3.519316782946509E+08, -1.263546615211439E+08,
2459986.500000000, A.D. 2023-Feb-11 00:00:00.0000, 1.787797473473103E+08, 3.557790984626339E+08, -1.283430355867918E+08,
2459993.500000000, A.D. 2023-Feb-18 00:00:00.0000, 1.699120690989865E+08, 3.593905624005672E+08, -1.302462849463651E+08,
2460000.500000000, A.D. 2023-Feb-25 00:00:00.0000, 1.609317703933842E+08, 3.627636410037315E+08, -1.320631353090393E+08,
2460007.500000000, A.D. 2023-Mar-04 00:00:00.0000, 1.518447520364585E+08, 3.658959770959402E+08, -1.337923381916579E+08,
2460014.500000000, A.D. 2023-Mar-11 00:00:00.0000, 1.426569558746103E+08, 3.687852846995407E+08, -1.354326704936406E+08,
2460021.500000000, A.D. 2023-Mar-18 00:00:00.0000, 1.333743672870802E+08, 3.714293483599181E+08, -1.369829341553046E+08,
2460028.500000000, A.D. 2023-Mar-25 00:00:00.0000, 1.240030179932985E+08, 3.738260224794959E+08, -1.384419559213555E+08,
2460035.500000000, A.D. 2023-Apr-01 00:00:00.0000, 1.145489895943138E+08, 3.759732310597583E+08, -1.398085872174480E+08,
2460042.500000000, A.D. 2023-Apr-08 00:00:00.0000, 1.050184172298049E+08, 3.778689690827795E+08, -1.410817039864397E+08,
2460049.500000000, A.D. 2023-Apr-15 00:00:00.0000, 9.541749101149498E+07, 3.795113044301214E+08, -1.422602063624057E+08,
2460056.500000000, A.D. 2023-Apr-22 00:00:00.0000, 8.575245703736693E+07, 3.808983772926425E+08, -1.433430185996783E+08,
2460063.500000000, A.D. 2023-Apr-29 00:00:00.0000, 7.602962071952192E+07, 3.820283993330600E+08, -1.443290893288826E+08,
2460070.500000000, A.D. 2023-May-06 00:00:00.0000, 6.625535066489320E+07, 3.828996543880318E+08, -1.452173918363822E+08,
2460077.500000000, A.D. 2023-May-13 00:00:00.0000, 5.643608212867778E+07, 3.835104998209023E+08, -1.460069243522020E+08,
2460084.500000000, A.D. 2023-May-20 00:00:00.0000, 4.657832027001361E+07, 3.838593680405083E+08, -1.466967104104300E+08,
2460091.500000000, A.D. 2023-May-27 00:00:00.0000, 3.668864339854289E+07, 3.839447681643203E+08, -1.472857993054317E+08,
2460098.500000000, A.D. 2023-Jun-03 00:00:00.0000, 2.677370626430475E+07, 3.837652878604106E+08, -1.477732666506847E+08,
2460105.500000000, A.D. 2023-Jun-10 00:00:00.0000, 1.684024340914024E+07, 3.833195953636774E+08, -1.481582150475390E+08,
2460112.500000000, A.D. 2023-Jun-17 00:00:00.0000, 6.895072662422806E+06, 3.826064416161173E+08, -1.484397748812798E+08,
2460119.500000000, A.D. 2023-Jun-24 00:00:00.0000, -3.054900906006399E+06, 3.816246625975318E+08, -1.486171052740107E+08,
2460126.500000000, A.D. 2023-Jul-01 00:00:00.0000, -1.300268033047818E+07, 3.803731826870036E+08, -1.486893951555823E+08,
2460133.500000000, A.D. 2023-Jul-08 00:00:00.0000, -2.294117307290750E+07, 3.788510198903208E+08, -1.486558642382556E+08,
2460140.500000000, A.D. 2023-Jul-15 00:00:00.0000, -3.286318960928841E+07, 3.770572901142098E+08, -1.485157640131408E+08,
2460147.500000000, A.D. 2023-Jul-22 00:00:00.0000, -4.276144077092209E+07, 3.749912094648527E+08, -1.482683791799535E+08,
$$EOE